KUIPER-00590            
1 69276U 26118K   26169.55460825  .00017509  00000+0  47107-3 0  9990
2 69276  51.8687  46.5971 0004105 163.4833 196.6289 15.37950772  4198
KUIPER-00592            
1 69277U 26118L   26169.55193339  .00011931  00000+0  32279-3 0  9991
2 69277  51.8707  46.5795 0003642 140.1621 219.9634 15.38120891  4193
KUIPER-00593            
1 69278U 26118M   26169.55268716  .00011798  00000+0  31973-3 0  9995
2 69278  51.8712  46.5837 0003833 160.1137 200.0000 15.38078840  4254
KUIPER-00594            
1 69279U 26118N   26169.54404795  .00012544  00000+0  33268-3 0  9993
2 69279  51.8719  46.5268 0000902  89.0040 271.1051 15.38688873  4197
KUIPER-00595            
1 69280U 26118P   26169.54635635  .00012110  00000+0  32325-3 0  9996
2 69280  51.8711  46.5436 0001479 148.7297 211.3778 15.38524708  4227
KUIPER-00596            
1 69281U 26118Q   26169.38963013  .00013777  00000+0  41265-3 0  9996
2 69281  51.8562  47.7167 0012512 189.2192 170.8565 15.34728234  4162
KUIPER-00597            
1 69282U 26118R   26169.56425782  .00009850  00000+0  27760-3 0  9994
2 69282  51.8650  46.6564 0007014 176.3158 183.7882 15.37054869  4197
KUIPER-00599            
1 69283U 26118S   26169.56105514  .00008048  00000+0  22669-3 0  9994
2 69283  51.8690  46.6387 0005959 170.6950 189.4148 15.37350496  4191
KUIPER-00600            
1 69284U 26118T   26169.56876838  .00005489  00000+0  16127-3 0  9997
2 69284  51.8643  46.6837 0008625 177.4953 182.6078 15.36697591  4197
KUIPER-00601            
1 69285U 26118U   26169.55733818  .00017007  00000+0  46170-3 0  9997
2 69285  51.8704  46.6146 0004616 158.1604 201.9580 15.37692518  4192
KUIPER-00602            
1 69286U 26118V   26169.55098910  .00011566  00000+0  31237-3 0  9997
2 69286  51.8701  46.5742 0002903 152.3432 207.7710 15.38209551  4194
KUIPER-00603            
1 69287U 26118W   26169.55870180  .00011069  00000+0  30525-3 0  9992
2 69287  51.8671  46.6228 0005450 165.3878 194.7267 15.37602983  4196
KUIPER-00605            
1 69288U 26118X   26169.56489790  .00010370  00000+0  29145-3 0  9997
2 69288  51.8663  46.6613 0007463 172.1388 187.9717 15.37074193  4194
KUIPER-00606            
1 69289U 26118Y   26169.55602132  .00011250  00000+0  30894-3 0  9995
2 69289  51.8694  46.6063 0004686 159.1221 200.9958 15.37717525  4199
KUIPER-00607            
1 69290U 26118Z   26169.55999531  .00010593  00000+0  29380-3 0  9996
2 69290  51.8680  46.6316 0006073 166.5828 193.5321 15.37469884  4197
KUIPER-00608            
1 69291U 26118AA  26169.57845878  .00015310  00000+0  45050-3 0  9997
2 69291  51.8615  46.7415 0008417 180.9504 179.1467 15.35235206  4190
KUIPER-00610            
1 69292U 26118AB  26169.54882826  .00021838  00000+0  57961-3 0  9995
2 69292  51.8721  46.5571 0002317 153.3825 206.7281 15.38222290  4196
KUIPER-00613            
1 69293U 26118AC  26169.51839819 -.00025348  00000+0 -73394-3 0  9997
2 69293  51.8648  47.0928 0009537 187.3139 172.7709 15.34637094  4187
KUIPER-00618            
1 69294U 26118AD  26169.54455745  .00012927  00000+0  34265-3 0  9994
2 69294  51.8720  46.5285 0001647  97.7561 262.3613 15.38675107  4198
KUIPER-00620            
1 69295U 26118AE  26169.54821422  .00012310  00000+0  33037-3 0  9996
2 69295  51.8715  46.5541 0002809 127.6568 232.4675 15.38338879  4197
STARLINK-37501          
1 69296U 26119A   26169.58334491 -.02379168  00000+0 -37454-1 0  9993
2 69296  97.2847 195.4199 0001194  85.7080 319.5237 15.57161439  4110
STARLINK-37496          
1 69297U 26119B   26169.58334491 -.02516804  00000+0 -37011-1 0  9993
2 69297  97.2853 195.4162 0001077  78.7075 318.4364 15.59183637  4119
STARLINK-37519          
1 69298U 26119C   26169.58334491 -.02397161  00000+0 -38553-1 0  9999
2 69298  97.2851 195.4275 0001375  75.7409 347.8694 15.56617479  4117
STARLINK-37455          
1 69299U 26119D   26169.58334491  .00045208  00000+0  82854-3 0  9993
2 69299  97.2858 195.3417 0001646  92.9453 137.4722 15.49173901  4117
STARLINK-37456          
1 69300U 26119E   26169.58334491 -.02834551  00000+0 -47827-1 0  9996
2 69300  97.2852 195.4231 0000677 275.0304 141.9695 15.55356531  4119
STARLINK-37630          
1 69301U 26119F   26169.58334491  .00036916  00000+0  67747-3 0  9997
2 69301  97.2846 195.2638 0000820 110.9841 297.0530 15.49180460  4272
STARLINK-37804          
1 69302U 26119G   26169.58334491  .00032569  00000+0  59819-3 0  9999
2 69302  97.2847 195.2606 0001325 102.9189 298.0622 15.49180807  4274
STARLINK-37730          
1 69303U 26119H   26169.58334491 -.01735748  00000+0 -22341-1 0  9990
2 69303  97.2851 195.4739 0001618  75.9006 103.0814 15.61913014  4277
STARLINK-37731          
1 69304U 26119J   26169.58334491  .00029554  00000+0  54316-3 0  9998
2 69304  97.2849 195.2577 0001021  92.1905 302.7884 15.49182045  4273
STARLINK-37734          
1 69305U 26119K   26169.58334491 -.02821434  00000+0 -47279-1 0  9998
2 69305  97.2851 195.4234 0000705 222.0243 193.8731 15.55523916  4279
