OBJECT_NAME,OBJECT_ID,EPOCH,MEAN_MOTION,ECCENTRICITY,INCLINATION,RA_OF_ASC_NODE,ARG_OF_PERICENTER,MEAN_ANOMALY,EPHEMERIS_TYPE,CLASSIFICATION_TYPE,NORAD_CAT_ID,ELEMENT_SET_NO,REV_AT_EPOCH,BSTAR,MEAN_MOTION_DOT,MEAN_MOTION_DDOT
KUIPER-00590,2026-118K,2026-06-18T13:18:38.152800,15.37950772,.00041059,51.8687,46.5971,163.4833,196.6289,0,U,69276,999,419,.4710698E-3,.17509E-3,0
KUIPER-00592,2026-118L,2026-06-18T13:14:47.044896,15.38120891,.00036426,51.8707,46.5795,140.1621,219.9634,0,U,69277,999,419,.32279355E-3,.11931E-3,0
KUIPER-00593,2026-118M,2026-06-18T13:15:52.170624,15.38078840,.00038331,51.8712,46.5837,160.1137,200.0000,0,U,69278,999,425,.31973392E-3,.11798E-3,0
KUIPER-00594,2026-118N,2026-06-18T13:03:25.742880,15.38688873,.00009027,51.8719,46.5268,89.0040,271.1051,0,U,69279,999,419,.33268362E-3,.12544E-3,0
KUIPER-00595,2026-118P,2026-06-18T13:06:45.188640,15.38524708,.00014792,51.8711,46.5436,148.7297,211.3778,0,U,69280,999,422,.32324644E-3,.1211E-3,0
KUIPER-00596,2026-118Q,2026-06-18T09:21:04.043232,15.34728234,.00125127,51.8562,47.7167,189.2192,170.8565,0,U,69281,999,416,.41265145E-3,.13777E-3,0
KUIPER-00597,2026-118R,2026-06-18T13:32:31.875648,15.37054869,.00070147,51.8650,46.6564,176.3158,183.7882,0,U,69282,999,419,.27759649E-3,.985E-4,0
KUIPER-00599,2026-118S,2026-06-18T13:27:55.164096,15.37350496,.00059597,51.8690,46.6387,170.6950,189.4148,0,U,69283,999,419,.2266949E-3,.8048E-4,0
KUIPER-00600,2026-118T,2026-06-18T13:39:01.588032,15.36697591,.00086252,51.8643,46.6837,177.4953,182.6078,0,U,69284,999,419,.16127295E-3,.5489E-4,0
KUIPER-00601,2026-118U,2026-06-18T13:22:34.018752,15.37692518,.00046161,51.8704,46.6146,158.1604,201.9580,0,U,69285,999,419,.46169917E-3,.17007E-3,0
KUIPER-00602,2026-118V,2026-06-18T13:13:25.458240,15.38209551,.00029033,51.8701,46.5742,152.3432,207.7710,0,U,69286,999,419,.3123722E-3,.11566E-3,0
KUIPER-00603,2026-118W,2026-06-18T13:24:31.835520,15.37602983,.00054508,51.8671,46.6228,165.3878,194.7267,0,U,69287,999,419,.30525127E-3,.11069E-3,0
KUIPER-00605,2026-118X,2026-06-18T13:33:27.178560,15.37074193,.00074631,51.8663,46.6613,172.1388,187.9717,0,U,69288,999,419,.29144838E-3,.1037E-3,0
KUIPER-00606,2026-118Y,2026-06-18T13:20:40.242048,15.37717525,.00046864,51.8694,46.6063,159.1221,200.9958,0,U,69289,999,419,.30893769E-3,.1125E-3,0
KUIPER-00607,2026-118Z,2026-06-18T13:26:23.594784,15.37469884,.00060737,51.8680,46.6316,166.5828,193.5321,0,U,69290,999,419,.29379817E-3,.10593E-3,0
KUIPER-00608,2026-118AA,2026-06-18T13:52:58.838592,15.35235206,.00084175,51.8615,46.7415,180.9504,179.1467,0,U,69291,999,419,.45049564E-3,.1531E-3,0
KUIPER-00610,2026-118AB,2026-06-18T13:10:18.761664,15.38222290,.00023177,51.8721,46.5571,153.3825,206.7281,0,U,69292,999,419,.57960976E-3,.21838E-3,0
KUIPER-00613,2026-118AC,2026-06-18T12:26:29.603616,15.34637094,.00095378,51.8648,47.0928,187.3139,172.7709,0,U,69293,999,418,-.73393914E-3,-.25348E-3,0
KUIPER-00618,2026-118AD,2026-06-18T13:04:09.763680,15.38675107,.00016472,51.8720,46.5285,97.7561,262.3613,0,U,69294,999,419,.34264831E-3,.12927E-3,0
KUIPER-00620,2026-118AE,2026-06-18T13:09:25.708608,15.38338879,.00028093,51.8715,46.5541,127.6568,232.4675,0,U,69295,999,419,.33037227E-3,.1231E-3,0
STARLINK-37501,2026-119A,2026-06-18T14:00:01.000224,15.57161439,.00011947,97.2847,195.4199,85.7080,319.5237,0,U,69296,999,411,-.37454103E-1,-.2379168E-1,0
STARLINK-37496,2026-119B,2026-06-18T14:00:01.000224,15.59183637,.00010774,97.2853,195.4162,78.7075,318.4364,0,U,69297,999,411,-.37011263E-1,-.2516804E-1,0
STARLINK-37519,2026-119C,2026-06-18T14:00:01.000224,15.56617479,.00013759,97.2851,195.4275,75.7409,347.8694,0,U,69298,999,411,-.38553441E-1,-.2397161E-1,0
STARLINK-37455,2026-119D,2026-06-18T14:00:01.000224,15.49173901,.00016469,97.2858,195.3417,92.9453,137.4722,0,U,69299,999,411,.82854397E-3,.45208E-3,0
STARLINK-37456,2026-119E,2026-06-18T14:00:01.000224,15.55356531,.00006775,97.2852,195.4231,275.0304,141.9695,0,U,69300,999,411,-.47826923E-1,-.2834551E-1,0
STARLINK-37630,2026-119F,2026-06-18T14:00:01.000224,15.49180460,.00008205,97.2846,195.2638,110.9841,297.0530,0,U,69301,999,427,.67746848E-3,.36916E-3,0
STARLINK-37804,2026-119G,2026-06-18T14:00:01.000224,15.49180807,.00013255,97.2847,195.2606,102.9189,298.0622,0,U,69302,999,427,.59819381E-3,.32569E-3,0
STARLINK-37730,2026-119H,2026-06-18T14:00:01.000224,15.61913014,.00016181,97.2851,195.4739,75.9006,103.0814,0,U,69303,999,427,-.22341096E-1,-.1735748E-1,0
STARLINK-37731,2026-119J,2026-06-18T14:00:01.000224,15.49182045,.00010218,97.2849,195.2577,92.1905,302.7884,0,U,69304,999,427,.54316064E-3,.29554E-3,0
STARLINK-37734,2026-119K,2026-06-18T14:00:01.000224,15.55523916,.00007051,97.2851,195.4234,222.0243,193.8731,0,U,69305,999,427,-.47278505E-1,-.2821434E-1,0
